start=new Date('2022-03-20T00:00:00.000Z').valueOf();
sats=[{"CENTER_NAME":"EARTH","TIME_SYSTEM":"UTC","BSTAR":"0.00008514400000","OBJECT_TYPE":"PAYLOAD","FILE":"3366144","RCS_SIZE":"LARGE","PERIOD":"95.592","DECAY_DATE":null,"COUNTRY_CODE":"US","MEAN_MOTION_DDOT":"0.0000000000000","OBJECT_NAME":"STARLINK-2644","CLASSIFICATION_TYPE":"U","MEAN_ELEMENT_THEORY":"SGP4","TLE_LINE2":"2 48442  53.0546 214.6062 0001383  65.8586 294.2547 15.06405961 47956","ELEMENT_SET_NO":"999","APOAPSIS":"548.153","MEAN_MOTION":"15.06405961","LAUNCH_DATE":"2021-05-09","TLE_LINE1":"1 48442U 21040Q   22078.86626094  .00000987  00000-0  85144-4 0  9999","NORAD_CAT_ID":"48442","ECCENTRICITY":"0.00013830","REF_FRAME":"TEME","SITE":"AFETR","EPHEMERIS_TYPE":"0","GP_ID":"199186719","SEMIMAJOR_AXIS":"6925.330","OBJECT_ID":"2021-040Q","RA_OF_ASC_NODE":"214.6062","INCLINATION":"53.0546","REV_AT_EPOCH":"4795","EPOCH":"2022-03-19T20:47:24.945216","PERIAPSIS":"546.238","ARG_OF_PERICENTER":"65.8586","MEAN_MOTION_DOT":"0.00000987","MEAN_ANOMALY":"294.2547"},{"FILE":"3366144","OBJECT_TYPE":"PAYLOAD","RCS_SIZE":"LARGE","DECAY_DATE":null,"COUNTRY_CODE":"US","MEAN_MOTION_DDOT":"0.0000000000000","OBJECT_NAME":"STARLINK-2663","CLASSIFICATION_TYPE":"U","PERIOD":"95.592","TIME_SYSTEM":"UTC","CENTER_NAME":"EARTH","BSTAR":"0.00003457100000","REF_FRAME":"TEME","ECCENTRICITY":"0.00013880","EPHEMERIS_TYPE":"0","SITE":"AFETR","APOAPSIS":"548.191","ELEMENT_SET_NO":"999","LAUNCH_DATE":"2021-05-09","MEAN_MOTION":"15.06394864","MEAN_ELEMENT_THEORY":"SGP4","TLE_LINE2":"2 48443  53.0547 214.6283 0001388  67.6165 292.4971 15.06394864 47951","TLE_LINE1":"1 48443U 21040R   22078.86257221  .00000233  00000-0  34571-4 0  9994","NORAD_CAT_ID":"48443","GP_ID":"199185493","OBJECT_ID":"2021-040R","SEMIMAJOR_AXIS":"6925.364","MEAN_MOTION_DOT":"0.00000233","PERIAPSIS":"546.268","EPOCH":"2022-03-19T20:42:06.238944","ARG_OF_PERICENTER":"67.6165","MEAN_ANOMALY":"292.4971","RA_OF_ASC_NODE":"214.6283","REV_AT_EPOCH":"4795","INCLINATION":"53.0547"},{"INCLINATION":"53.0557","REV_AT_EPOCH":"4795","RA_OF_ASC_NODE":"214.6528","MEAN_ANOMALY":"294.2053","PERIAPSIS":"546.335","EPOCH":"2022-03-19T20:36:47.830752","ARG_OF_PERICENTER":"65.9069","MEAN_MOTION_DOT":"0.00000367","SEMIMAJOR_AXIS":"6925.348","OBJECT_ID":"2021-040S","GP_ID":"199186244","TLE_LINE1":"1 48444U 21040S   22078.85888693  .00000367  00000-0  43495-4 0  9990","NORAD_CAT_ID":"48444","TLE_LINE2":"2 48444  53.0557 214.6528 0001268  65.9069 294.2053 15.06400238 47950","MEAN_ELEMENT_THEORY":"SGP4","ELEMENT_SET_NO":"999","APOAPSIS":"548.091","LAUNCH_DATE":"2021-05-09","MEAN_MOTION":"15.06400238","SITE":"AFETR","EPHEMERIS_TYPE":"0","ECCENTRICITY":"0.00012680","REF_FRAME":"TEME","BSTAR":"0.00004349500000","CENTER_NAME":"EARTH","TIME_SYSTEM":"UTC","PERIOD":"95.592","DECAY_DATE":null,"COUNTRY_CODE":"US","MEAN_MOTION_DDOT":"0.0000000000000","CLASSIFICATION_TYPE":"U","OBJECT_NAME":"STARLINK-2645","RCS_SIZE":"LARGE","FILE":"3366144","OBJECT_TYPE":"PAYLOAD"},{"MEAN_ANOMALY":"288.2049","MEAN_MOTION_DOT":"-0.00001110","EPOCH":"2022-03-19T18:55:57.227520","PERIAPSIS":"546.176","ARG_OF_PERICENTER":"71.9107","REV_AT_EPOCH":"4794","INCLINATION":"53.0551","RA_OF_ASC_NODE":"214.9721","OBJECT_ID":"2021-040T","SEMIMAJOR_AXIS":"6925.374","GP_ID":"199185994","EPHEMERIS_TYPE":"0","SITE":"AFETR","REF_FRAME":"TEME","ECCENTRICITY":"0.00015350","TLE_LINE1":"1 48445U 21040T   22078.78885680 -.00001110  00000-0 -55618-4 0  9995","NORAD_CAT_ID":"48445","ELEMENT_SET_NO":"999","APOAPSIS":"548.302","LAUNCH_DATE":"2021-05-09","MEAN_MOTION":"15.06391843","TLE_LINE2":"2 48445  53.0551 214.9721 0001535  71.9107 288.2049 15.06391843 47948","MEAN_ELEMENT_THEORY":"SGP4","COUNTRY_CODE":"US","DECAY_DATE":null,"MEAN_MOTION_DDOT":"0.0000000000000","OBJECT_NAME":"STARLINK-2634","CLASSIFICATION_TYPE":"U","PERIOD":"95.593","FILE":"3366144","RCS_SIZE":"LARGE","OBJECT_TYPE":"PAYLOAD","BSTAR":"-0.00005561800000","TIME_SYSTEM":"UTC","CENTER_NAME":"EARTH"},{"OBJECT_TYPE":"PAYLOAD","FILE":"3366144","RCS_SIZE":"LARGE","DECAY_DATE":null,"COUNTRY_CODE":"US","MEAN_MOTION_DDOT":"0.0000000000000","OBJECT_NAME":"STARLINK-2247","CLASSIFICATION_TYPE":"U","PERIOD":"95.592","TIME_SYSTEM":"UTC","CENTER_NAME":"EARTH","BSTAR":"0.00016394000000","REF_FRAME":"TEME","ECCENTRICITY":"0.00013730","EPHEMERIS_TYPE":"0","SITE":"AFETR","ELEMENT_SET_NO":"999","APOAPSIS":"548.147","LAUNCH_DATE":"2021-05-09","MEAN_MOTION":"15.06405619","TLE_LINE2":"2 48446  53.0548 214.6828 0001373  64.8399 295.2732 15.06405619 47959","MEAN_ELEMENT_THEORY":"SGP4","TLE_LINE1":"1 48446U 21040U   22078.85151377  .00002162  00000-0  16394-3 0  9996","NORAD_CAT_ID":"48446","GP_ID":"199186219","OBJECT_ID":"2021-040U","SEMIMAJOR_AXIS":"6925.331","MEAN_MOTION_DOT":"0.00002162","PERIAPSIS":"546.245","EPOCH":"2022-03-19T20:26:10.789728","ARG_OF_PERICENTER":"64.8399","MEAN_ANOMALY":"295.2732","RA_OF_ASC_NODE":"214.6828","REV_AT_EPOCH":"4795","INCLINATION":"53.0548"},{"SITE":"AFETR","EPHEMERIS_TYPE":"0","ECCENTRICITY":"0.00013290","REF_FRAME":"TEME","NORAD_CAT_ID":"48447","TLE_LINE1":"1 48447U 21040V   22078.64879835 -.00001432  00000-0 -77325-4 0  9993","TLE_LINE2":"2 48447  53.0558 215.5950 0001329  72.5137 287.5997 15.06385851 47923","MEAN_ELEMENT_THEORY":"SGP4","MEAN_MOTION":"15.06385851","LAUNCH_DATE":"2021-05-09","ELEMENT_SET_NO":"999","APOAPSIS":"548.177","PERIOD":"95.593","OBJECT_NAME":"STARLINK-2269","CLASSIFICATION_TYPE":"U","COUNTRY_CODE":"US","DECAY_DATE":null,"MEAN_MOTION_DDOT":"0.0000000000000","FILE":"3366144","RCS_SIZE":"LARGE","OBJECT_TYPE":"PAYLOAD","BSTAR":"-0.00007732500000","CENTER_NAME":"EARTH","TIME_SYSTEM":"UTC","MEAN_ANOMALY":"287.5997","ARG_OF_PERICENTER":"72.5137","PERIAPSIS":"546.337","EPOCH":"2022-03-19T15:34:16.177440","MEAN_MOTION_DOT":"-0.00001432","INCLINATION":"53.0558","REV_AT_EPOCH":"4792","RA_OF_ASC_NODE":"215.5950","SEMIMAJOR_AXIS":"6925.392","OBJECT_ID":"2021-040V","GP_ID":"199184993"},{"FILE":"3366144","RCS_SIZE":"LARGE","OBJECT_TYPE":"PAYLOAD","PERIOD":"95.591","OBJECT_NAME":"STARLINK-2632","CLASSIFICATION_TYPE":"U","COUNTRY_CODE":"US","DECAY_DATE":null,"MEAN_MOTION_DDOT":"0.0000000000000","CENTER_NAME":"EARTH","TIME_SYSTEM":"UTC","BSTAR":"0.00021269000000","ECCENTRICITY":"0.00015980","REF_FRAME":"TEME","SITE":"AFETR","EPHEMERIS_TYPE":"0","TLE_LINE2":"2 48448  53.0541 214.5934 0001598  60.2821 299.8327 15.06411397 47950","MEAN_ELEMENT_THEORY":"SGP4","LAUNCH_DATE":"2021-05-09","MEAN_MOTION":"15.06411397","APOAPSIS":"548.285","ELEMENT_SET_NO":"999","NORAD_CAT_ID":"48448","TLE_LINE1":"1 48448U 21040W   22078.87269580  .00002889  00000-0  21269-3 0  9999","GP_ID":"199185744","SEMIMAJOR_AXIS":"6925.314","OBJECT_ID":"2021-040W","ARG_OF_PERICENTER":"60.2821","EPOCH":"2022-03-19T20:56:40.917120","PERIAPSIS":"546.072","MEAN_MOTION_DOT":"0.00002889","MEAN_ANOMALY":"299.8327","RA_OF_ASC_NODE":"214.5934","INCLINATION":"53.0541","REV_AT_EPOCH":"4795"},{"CENTER_NAME":"EARTH","TIME_SYSTEM":"UTC","BSTAR":"0.00002287600000","RCS_SIZE":"LARGE","FILE":"3366144","OBJECT_TYPE":"PAYLOAD","PERIOD":"95.592","DECAY_DATE":null,"MEAN_MOTION_DDOT":"0.0000000000000","COUNTRY_CODE":"US","OBJECT_NAME":"STARLINK-2655","CLASSIFICATION_TYPE":"U","TLE_LINE2":"2 48449  53.0541 215.3152 0001447  71.1239 288.9907 15.06397426 47936","MEAN_ELEMENT_THEORY":"SGP4","ELEMENT_SET_NO":"999","APOAPSIS":"548.224","LAUNCH_DATE":"2021-05-09","MEAN_MOTION":"15.06397426","TLE_LINE1":"1 48449U 21040X   22078.71145809  .00000059  00000-0  22876-4 0  9993","NORAD_CAT_ID":"48449","ECCENTRICITY":"0.00014470","REF_FRAME":"TEME","SITE":"AFETR","EPHEMERIS_TYPE":"0","GP_ID":"199186495","SEMIMAJOR_AXIS":"6925.356","OBJECT_ID":"2021-040X","RA_OF_ASC_NODE":"215.3152","INCLINATION":"53.0541","REV_AT_EPOCH":"4793","PERIAPSIS":"546.219","EPOCH":"2022-03-19T17:04:29.978976","ARG_OF_PERICENTER":"71.1239","MEAN_MOTION_DOT":"0.00000059","MEAN_ANOMALY":"288.9907"},{"INCLINATION":"53.0548","REV_AT_EPOCH":"4795","RA_OF_ASC_NODE":"214.7327","MEAN_ANOMALY":"299.1004","ARG_OF_PERICENTER":"61.0139","PERIAPSIS":"546.083","EPOCH":"2022-03-19T20:10:16.846464","MEAN_MOTION_DOT":"0.00010189","SEMIMAJOR_AXIS":"6925.284","OBJECT_ID":"2021-040Y","GP_ID":"199186720","NORAD_CAT_ID":"48450","TLE_LINE1":"1 48450U 21040Y   22078.84047276  .00010189  00000-0  70153-3 0  9993","TLE_LINE2":"2 48450  53.0548 214.7327 0001539  61.0139 299.1004 15.06421190 47951","MEAN_ELEMENT_THEORY":"SGP4","LAUNCH_DATE":"2021-05-09","MEAN_MOTION":"15.06421190","APOAPSIS":"548.214","ELEMENT_SET_NO":"999","SITE":"AFETR","EPHEMERIS_TYPE":"0","ECCENTRICITY":"0.00015390","REF_FRAME":"TEME","BSTAR":"0.00070153000000","CENTER_NAME":"EARTH","TIME_SYSTEM":"UTC","PERIOD":"95.591","OBJECT_NAME":"STARLINK-2660","CLASSIFICATION_TYPE":"U","COUNTRY_CODE":"US","DECAY_DATE":null,"MEAN_MOTION_DDOT":"0.0000000000000","FILE":"3366144","RCS_SIZE":"LARGE","OBJECT_TYPE":"PAYLOAD"},{"INCLINATION":"53.0541","REV_AT_EPOCH":"4792","RA_OF_ASC_NODE":"215.6465","MEAN_ANOMALY":"278.0221","EPOCH":"2022-03-19T15:18:19.549728","PERIAPSIS":"546.163","ARG_OF_PERICENTER":"82.0937","MEAN_MOTION_DOT":"0.00001849","SEMIMAJOR_AXIS":"6925.329","OBJECT_ID":"2021-040Z","GP_ID":"199185494","TLE_LINE1":"1 48451U 21040Z   22078.63772627  .00001849  00000-0  14297-3 0  9996","NORAD_CAT_ID":"48451","MEAN_ELEMENT_THEORY":"SGP4","TLE_LINE2":"2 48451  53.0541 215.6465 0001489  82.0937 278.0221 15.06406431 47926","ELEMENT_SET_NO":"999","APOAPSIS":"548.225","LAUNCH_DATE":"2021-05-09","MEAN_MOTION":"15.06406431","SITE":"AFETR","EPHEMERIS_TYPE":"0","ECCENTRICITY":"0.00014890","REF_FRAME":"TEME","BSTAR":"0.00014297000000","CENTER_NAME":"EARTH","TIME_SYSTEM":"UTC","PERIOD":"95.592","DECAY_DATE":null,"COUNTRY_CODE":"US","MEAN_MOTION_DDOT":"0.0000000000000","OBJECT_NAME":"STARLINK-2652","CLASSIFICATION_TYPE":"U","FILE":"3366144","OBJECT_TYPE":"PAYLOAD","RCS_SIZE":"LARGE"}];
